STARLINK-5498           
1 55633U 23021F   26175.07197716  .00000136  00000+0  19172-4 0  9992
2 55633  69.9993 296.2091 0003462 268.8301  91.2461 14.98330840184232
STARLINK-5500           
1 55634U 23021G   26175.07631996  .00000099  00000+0  16067-4 0  9994
2 55634  69.9999 296.2252 0003061 271.1711  88.9098 14.98329401184224
STARLINK-5495           
1 55635U 23021H   26174.45421715  .00000151  00000+0  20456-4 0  9998
2 55635  69.9990 277.7961 0003259 270.0696  90.0089 14.98331414184632
STARLINK-5218           
1 55636U 23021J   26175.06362823 -.00000065  00000+0  23663-5 0  9990
2 55636  70.0000 296.1809 0003129 268.5699  91.5102 14.98330566184230
STARLINK-5062           
1 55637U 23021K   26174.53767297 -.00000105  00000+0 -98818-6 0  9997
2 55637  69.9992 277.6844 0003371 268.5578  91.5195 14.98331309184649
STARLINK-5507           
1 55638U 23021L   26174.73400459  .00000146  00000+0  20067-4 0  9996
2 55638  69.9999 297.0373 0003113 265.4549  94.6254 14.98330529184180
STARLINK-5508           
1 55639U 23021M   26174.98429756 -.00001018  00000+0 -77547-4 0  9991
2 55639  69.9987 276.4360 0003813 256.9506 103.1227 14.98320687184719
STARLINK-5069           
1 55640U 23021N   26174.97994905 -.00000011  00000+0  68359-5 0  9998
2 55640  69.9993 276.4164 0002991 270.2324  89.8493 14.98331168184714
STARLINK-5065           
1 55641U 23021P   26174.74212711 -.00000079  00000+0  12106-5 0  9995
2 55641  69.9994 277.1917 0003547 267.8939  92.1814 14.98330800184673
STARLINK-5483           
1 55643U 23021R   26175.01751723 -.00000370  00000+0 -23239-4 0  9992
2 55643  69.9994 276.5445 0003332 269.8595  90.2183 14.98329948184710
STARLINK-5502           
1 55644U 23021S   26174.39580634  .00000203  00000+0  24767-4 0  9994
2 55644  69.9989 277.9907 0002975 265.8386  94.2433 14.98329985184622
STARLINK-5510           
1 55647U 23021V   26175.03001307  .00000378  00000+0  39480-4 0  9995
2 55647  69.9992 276.1902 0003301 269.4244  90.6537 14.98330457184724
STARLINK-5501           
1 55648U 23021W   26174.45839002 -.00000012  00000+0  68239-5 0  9993
2 55648  69.9987 277.8080 0003264 268.2203  91.8582 14.98332633184635
STARLINK-5469           
1 55649U 23021X   26175.30540175  .00000522  00000+0  51569-4 0  9991
2 55649  69.9990 275.5464 0003273 272.1281  87.9503 14.98328300184760
STARLINK-5494           
1 55650U 23021Y   26174.98412248  .00000229  00000+0  27021-4 0  9995
2 55650  69.9988 276.4310 0003274 271.2863  88.7921 14.98332219184718
STARLINK-5506           
1 55651U 23021Z   26174.53349857  .00000087  00000+0  15053-4 0  9996
2 55651  69.9994 277.6693 0003339 268.4678  91.6099 14.98331928184644
STARLINK-5487           
1 55652U 23021AA  26175.30957434  .00000307  00000+0  33501-4 0  9992
2 55652  69.9990 275.5607 0003484 268.6773  91.3987 14.98330177184763
STARLINK-5067           
1 55653U 23021AB  26174.69203776  .00000300  00000+0  32962-4 0  9990
2 55653  69.9994 277.0175 0003163 269.3330  90.7467 14.98331395184675
STARLINK-5070           
1 55654U 23021AC  26174.47926379  .00000073  00000+0  13886-4 0  9999
2 55654  69.9996 277.8829 0003146 270.7220  89.3578 14.98329126184639
STARLINK-5267           
1 55655U 23021AD  26174.51657896  .00000722  00000+0  68289-4 0  9998
2 55655  69.9987 257.7356 0003504 270.9966  89.0792 14.98331544185126
STARLINK-5328           
1 55657U 23021AF  26174.92550338  .00001101  00000+0  10007-3 0  9994
2 55657  69.9987 256.7536 0003222 271.1480  88.9310 14.98312779185198
STARLINK-5307           
1 55658U 23021AG  26174.56686583  .00000315  00000+0  34162-4 0  9992
2 55658  69.9994 277.3839 0003371 268.9000  91.1773 14.98330498184656
STARLINK-5477           
1 55659U 23021AH  26174.52077062  .00002199  00000+0  19210-3 0  9993
2 55659  69.9998 257.7503 0003243 274.9428  85.1360 14.98319574185120
STARLINK-5467           
1 55660U 23021AJ  26174.93798584  .00001283  00000+0  11529-3 0  9997
2 55660  69.9988 256.4020 0003199 272.9450  87.1343 14.98324145185206
STARLINK-5475           
1 55661U 23021AK  26174.63757725  .00000503  00000+0  49931-4 0  9990
2 55661  69.9990 257.3568 0003433 270.0145  90.0621 14.98330449185158
STARLINK-5479           
1 55662U 23021AL  26174.92555650  .00001462  00000+0  13295-3 0  9994
2 55662  69.9990 256.7652 0003368 270.0098  90.0674 14.97534511185197
STARLINK-5473           
1 55663U 23021AM  26174.96302961  .00000199  00000+0  24479-4 0  9997
2 55663  69.9988 256.4839 0003406 269.8159  90.2609 14.98329687185193
STARLINK-5480           
1 55664U 23021AN  26174.51241611  .00007150  00000+0  60670-3 0  9999
2 55664  69.9994 257.7254 0003714 270.3216  89.7517 14.98308553185133
STARLINK-5474           
1 55665U 23021AP  26174.95885698 -.00000243  00000+0 -12571-4 0  9993
2 55665  69.9987 256.4697 0003245 269.5748  90.5039 14.98328439185192
STARLINK-5456           
1 55667U 23021AR  26174.94633233 -.00002354  00000+0 -18944-3 0  9994
2 55667  69.9984 256.4246 0003477 265.8483  94.2279 14.98342469185199
STARLINK-5455           
1 55668U 23021AS  26174.97555223 -.00000094  00000+0 -87400-7 0  9996
2 55668  69.9991 256.5290 0003428 268.4188  91.6578 14.98329056185195
STARLINK-5459           
1 55669U 23021AT  26175.23424260  .00000006  00000+0  83454-5 0  9997
2 55669  69.9989 255.8260 0003471 268.9955  91.0806 14.98330915185236
STARLINK-5423           
1 55670U 23021AU  26174.95467964 -.00000009  00000+0  70561-5 0  9994
2 55670  69.9986 256.4536 0003420 269.8698  90.2069 14.98330255185202
STARLINK-5460           
1 55671U 23021AV  26174.93400174  .00000947  00000+0  87155-4 0  9999
2 55671  69.9991 256.7718 0003378 270.7698  89.3074 14.98325877185194
STARLINK-5463           
1 55673U 23021AX  26174.95050603 -.00000082  00000+0  89633-6 0  9997
2 55673  69.9987 256.4381 0003459 273.1969  86.8794 14.98331885185201
STARLINK-5462           
1 55674U 23021AY  26174.94215326  .00001237  00000+0  11140-3 0  9999
2 55674  70.0001 256.4082 0003976 270.7630  89.3074 14.98332054185200
STARLINK-5232           
1 55675U 23021AZ  26174.93380537 -.00002721  00000+0 -22029-3 0  9995
2 55675  69.9986 256.3809 0003694 271.4516  88.6220 14.98331912185201
STARLINK-5300           
1 55676U 23021BA  26175.88508751  .00001670  00000+0  14774-3 0  9999
2 55676  69.9997 234.2106 0003614 268.7182  91.3563 14.98335035185839
STARLINK-5324           
1 55677U 23021BB  26175.87241227  .00000641  00000+0  61557-4 0  9990
2 55677  69.9973 234.1612 0003977 278.3299  81.7409 14.98329638185837
ZHONGXING-26            
1 55686U 23023A   26176.05073427 -.00000345  00000+0  00000+0 0  9991
2 55686   0.0665  70.5271 0003709  19.8117 326.2181  1.00267743 12306
HORUS 1                 
1 55690U 23025A   26176.16698256  .00006369  00000+0  27107-3 0  9995
2 55690  97.3465 250.5938 0001967 141.2087 218.9291 15.23336624185268
STARLINK-5592           
1 55741U 23028A   26175.88191424  .00000402  00000+0  41494-4 0  9996
2 55741  69.9998 334.3028 0002677 270.2406  89.8446 14.98331319182282
STARLINK-5594           
1 55742U 23028B   26176.15313034 -.00000112  00000+0 -16117-5 0  9996
2 55742  69.9994 333.6441 0002335 271.0197  89.0695 14.98330065182136
STARLINK-5602           
1 55743U 23028C   26176.15731867  .00001952  00000+0  17137-3 0  9997
2 55743  69.9989 333.6591 0003994 270.6600  89.4101 14.98324123182137
STARLINK-5601           
1 55744U 23028D   26176.15329676  .00000604  00000+0  58426-4 0  9999
2 55744  69.9999 333.6448 0003175 262.3159  97.7640 14.98343023182138
STARLINK-5579           
1 55746U 23028F   26175.18927817 -.00000020  00000+0  61052-5 0  9997
2 55746  70.0045 335.8977 0002593 278.7670  81.3195 14.98316149181994
STARLINK-5539           
1 55747U 23028G   26175.87356819  .00000734  00000+0  69322-4 0  9990
2 55747  70.0002 334.2731 0003101 268.8531  91.2273 14.98333684182093
STARLINK-5580           
1 55748U 23028H   26175.86939933  .00000687  00000+0  65425-4 0  9991
2 55748  69.9993 334.2582 0003579 273.4088  86.6661 14.98316089182091
STARLINK-5573           
1 55750U 23028K   26175.19763871  .00001827  00000+0  16091-3 0  9997
2 55750  69.9996 335.9267 0003190 267.4983  92.5811 14.98325885181996
STARLINK-5577           
1 55751U 23028L   26175.14338150  .00000024  00000+0  98354-5 0  9993
2 55751  70.0003 336.1396 0003078 268.9125  91.1681 14.98330941181982
STARLINK-5613           
1 55752U 23028M   26176.17397558 -.00000110  00000+0 -14519-5 0  9994
2 55752  69.9989 333.3132 0003029 268.4797  91.6015 14.98328792182142
STARLINK-5617           
1 55753U 23028N   26175.18943925 -.00000603  00000+0 -42808-4 0  9998
2 55753  70.0045 335.8976 0002424 281.3892  78.6995 14.98321148181992
STARLINK-5612           
1 55754U 23028P   26176.18232411 -.00000288  00000+0 -16327-4 0  9997
2 55754  70.0012 333.3426 0002902 269.8552  90.2275 14.98330236182142
STARLINK-5614           
1 55756U 23028R   26176.16562663  .00000167  00000+0  21809-4 0  9997
2 55756  69.9993 333.2839 0002904 267.6501  92.4325 14.98328746182141
STARLINK-5544           
1 55757U 23028S   26176.18651198  .00000932  00000+0  85913-4 0  9998
2 55757  69.9998 333.3575 0002663 269.3971  90.6882 14.98332202182147
STARLINK-5072           
1 55758U 23028T   26176.17814987  .00001669  00000+0  14769-3 0  9993
2 55758  69.9999 333.3285 0002997 267.0137  93.0679 14.98320349182146
STARLINK-5532           
1 55760U 23028V   26176.16145433 -.00000175  00000+0 -68653-5 0  9994
2 55760  69.9982 333.2700 0002920 267.6679  92.4146 14.98327434182149
STARLINK-5611           
1 55761U 23028W   26175.13914821  .00000287  00000+0  31815-4 0  9997
2 55761  69.9998 316.2431 0003148 268.2276  91.8522 14.98331394182479
STARLINK-5603           
1 55762U 23028X   26175.12646094  .00000023  00000+0  97565-5 0  9994
2 55762  70.0000 316.1965 0002981 266.7312  93.3506 14.98330233182476
